[{"OBJECT_NAME":"NUSTAR","OBJECT_ID":"2012-031A","EPOCH":"2026-03-10T00:00:02.999808","MEAN_MOTION":15.07728841,"ECCENTRICITY":0.00071224,"INCLINATION":6.0266,"RA_OF_ASC_NODE":57.5732,"ARG_OF_PERICENTER":70.6924,"MEAN_ANOMALY":331.0724,"EPHEMERIS_TYPE":0,"CLASSIFICATION_TYPE":"U","NORAD_CAT_ID":38358,"ELEMENT_SET_NO":999,"REV_AT_EPOCH":130,"BSTAR":0.0011080621,"MEAN_MOTION_DOT":0.00018332,"MEAN_MOTION_DDOT":0},{"OBJECT_NAME":"STARLINK-2134","OBJECT_ID":"2021-005BL","EPOCH":"2026-03-09T07:23:52.599552","MEAN_MOTION":15.06400984,"ECCENTRICITY":0.00014021,"INCLINATION":53.0561,"RA_OF_ASC_NODE":33.33,"ARG_OF_PERICENTER":93.3286,"MEAN_ANOMALY":266.7864,"EPHEMERIS_TYPE":0,"CLASSIFICATION_TYPE":"U","NORAD_CAT_ID":47407,"ELEMENT_SET_NO":999,"REV_AT_EPOCH":28340,"BSTAR":2.890276e-6,"MEAN_MOTION_DOT":-2.38e-6,"MEAN_MOTION_DDOT":0}]
